{"type": "FeatureCollection", "features": [ {"type": "Feature", "properties": {"norad_id": 34031, "name": "COSMOS 2251 DEB", "group": "cosmos-2251-debris", "lat": -56.99911238041747, "lon": 93.13188113859682, "alt_km": 692.5330149244055, "timestamp": "2025-12-21T07:34:34.908204+00:00", "meta": {"OBJECT_NAME": "COSMOS 2251 DEB", "OBJECT_ID": "1993-036HS", "EPOCH": "2025-12-20T19:23:09.286368", "MEAN_MOTION": 14.59770035, "ECCENTRICITY": 0.00229339, "INCLINATION": 74.0131, "RA_OF_ASC_NODE": 120.2978, "ARG_OF_PERICENTER": 240.2548, "MEAN_ANOMALY": 270.639, "EPHEMERIS_TYPE": 0, "CLASSIFICATION_TYPE": "U", "NORAD_CAT_ID": 34031, "ELEMENT_SET_NO": 999, "REV_AT_EPOCH": 88683, "BSTAR": 0.00079740803, "MEAN_MOTION_DOT": 3.793e-05, "MEAN_MOTION_DDOT": 0}, "tle": {"line1": "1 34031U 93036HS  25354.80774637  .00003793  00000+0  79741-3 0  9995", "line2": "2 34031  74.0131 120.2978 0022933 240.2548 270.6390 14.59770035886833"}}, "geometry": {"type": "Point", "coordinates": [93.13188113859682, -56.99911238041747]}}, {"type": "Feature", "properties": {"norad_id": 34035, "name": "COSMOS 2251 DEB", "group": "cosmos-2251-debris", "lat": -40.92152496053866, "lon": 167.34993872071934, "alt_km": 735.99623539823, "timestamp": "2025-12-21T07:34:34.908212+00:00", "meta": {"OBJECT_NAME": "COSMOS 2251 DEB", "OBJECT_ID": "1993-036HW", "EPOCH": "2025-12-20T16:27:56.877408", "MEAN_MOTION": 14.52033624, "ECCENTRICITY": 0.00451767, "INCLINATION": 74.0655, "RA_OF_ASC_NODE": 334.1941, "ARG_OF_PERICENTER": 334.1122, "MEAN_ANOMALY": 199.4071, "EPHEMERIS_TYPE": 0, "CLASSIFICATION_TYPE": "U", "NORAD_CAT_ID": 34035, "ELEMENT_SET_NO": 999, "REV_AT_EPOCH": 88081, "BSTAR": 0.0010888868, "MEAN_MOTION_DOT": 4.435e-05, "MEAN_MOTION_DDOT": 0}, "tle": {"line1": "1 34035U 93036HW  25354.68607497  .00004435  00000+0  10889-2 0  9995", "line2": "2 34035  74.0655 334.1941 0045176 334.1122 199.4071 14.52033624880814"}}, "geometry": {"type": "Point", "coordinates": [167.34993872071934, -40.92152496053866]}}, {"type": "Feature", "properties": {"norad_id": 34036, "name": "COSMOS 2251 DEB", "group": "cosmos-2251-debris", "lat": 18.18031383539089, "lon": 137.34743058567022, "alt_km": 586.580210576838, "timestamp": "2025-12-21T07:34:34.908221+00:00", "meta": {"OBJECT_NAME": "COSMOS 2251 DEB", "OBJECT_ID": "1993-036HX", "EPOCH": "2025-12-20T18:38:54.070080", "MEAN_MOTION": 14.9554893, "ECCENTRICITY": 0.00108379, "INCLINATION": 74.0192, "RA_OF_ASC_NODE": 133.035, "ARG_OF_PERICENTER": 162.4424, "MEAN_ANOMALY": 197.7137, "EPHEMERIS_TYPE": 0, "CLASSIFICATION_TYPE": "U", "NORAD_CAT_ID": 34036, "ELEMENT_SET_NO": 999, "REV_AT_EPOCH": 88690, "BSTAR": 0.0022969867, "MEAN_MOTION_DOT": 0.00025561, "MEAN_MOTION_DDOT": 0}, "tle": {"line1": "1 34036U 93036HX  25354.77701470  .00025561  00000+0  22970-2 0  9999", "line2": "2 34036  74.0192 133.0350 0010837 162.4424 197.7137 14.95548930886902"}}, "geometry": {"type": "Point", "coordinates": [137.34743058567022, 18.18031383539089]}}, {"type": "Feature", "properties": {"norad_id": 34037, "name": "COSMOS 2251 DEB", "group": "cosmos-2251-debris", "lat": 7.632450281711861, "lon": 36.94292852376123, "alt_km": 767.3174081529505, "timestamp": "2025-12-21T07:34:34.908230+00:00", "meta": {"OBJECT_NAME": "COSMOS 2251 DEB", "OBJECT_ID": "1993-036HY", "EPOCH": "2025-12-20T19:49:29.803296", "MEAN_MOTION": 14.34683641, "ECCENTRICITY": 0.00518229, "INCLINATION": 74.0512, "RA_OF_ASC_NODE": 35.6426, "ARG_OF_PERICENTER": 83.1301, "MEAN_ANOMALY": 277.5744, "EPHEMERIS_TYPE": 0, "CLASSIFICATION_TYPE": "U", "NORAD_CAT_ID": 34037, "ELEMENT_SET_NO": 999, "REV_AT_EPOCH": 87833, "BSTAR": 0.00029102631, "MEAN_MOTION_DOT": 8.11e-06, "MEAN_MOTION_DDOT": 0}, "tle": {"line1": "1 34037U 93036HY  25354.82603939  .00000811  00000+0  29103-3 0  9994", "line2": "2 34037  74.0512  35.6426 0051822  83.1301 277.5744 14.34683641878333"}}, "geometry": {"type": "Point", "coordinates": [36.94292852376123, 7.632450281711861]}}, {"type": "Feature", "properties": {"norad_id": 34040, "name": "COSMOS 2251 DEB", "group": "cosmos-2251-debris", "lat": 13.761281568116518, "lon": 55.734035189370864, "alt_km": 756.878247118234, "timestamp": "2025-12-21T07:34:34.908239+00:00", "meta": {"OBJECT_NAME": "COSMOS 2251 DEB", "OBJECT_ID": "1993-036JB", "EPOCH": "2025-12-20T12:12:41.867424", "MEAN_MOTION": 13.68385497, "ECCENTRICITY": 0.0343303, "INCLINATION": 73.9557, "RA_OF_ASC_NODE": 53.0256, "ARG_OF_PERICENTER": 4.8123, "MEAN_ANOMALY": 355.6151, "EPHEMERIS_TYPE": 0, "CLASSIFICATION_TYPE": "U", "NORAD_CAT_ID": 34040, "ELEMENT_SET_NO": 999, "REV_AT_EPOCH": 83706, "BSTAR": 0.00048506, "MEAN_MOTION_DOT": 6.03e-06, "MEAN_MOTION_DDOT": 0}, "tle": {"line1": "1 34040U 93036JB  25354.50881791  .00000603  00000+0  48506-3 0  9994", "line2": "2 34040  73.9557  53.0256 0343303   4.8123 355.6151 13.68385497837068"}}, "geometry": {"type": "Point", "coordinates": [55.734035189370864, 13.761281568116518]}}, {"type": "Feature", "properties": {"norad_id": 34045, "name": "COSMOS 2251 DEB", "group": "cosmos-2251-debris", "lat": 33.07753597110169, "lon": -54.11721213612752, "alt_km": 758.0979660496696, "timestamp": "2025-12-21T07:34:34.908248+00:00", "meta": {"OBJECT_NAME": "COSMOS 2251 DEB", "OBJECT_ID": "1993-036JG", "EPOCH": "2025-12-20T21:37:53.851872", "MEAN_MOTION": 14.34072981, "ECCENTRICITY": 0.00260019, "INCLINATION": 74.0395, "RA_OF_ASC_NODE": 295.8978, "ARG_OF_PERICENTER": 17.117, "MEAN_ANOMALY": 39.1043, "EPHEMERIS_TYPE": 0, "CLASSIFICATION_TYPE": "U", "NORAD_CAT_ID": 34045, "ELEMENT_SET_NO": 999, "REV_AT_EPOCH": 88150, "BSTAR": 6.9310802e-05, "MEAN_MOTION_DOT": 1.68e-06, "MEAN_MOTION_DDOT": 0}, "tle": {"line1": "1 34045U 93036JG  25354.90131773  .00000168  00000+0  69311-4 0  9995", "line2": "2 34045  74.0395 295.8978 0026001  17.1170  39.1043 14.34072981881501"}}, "geometry": {"type": "Point", "coordinates": [-54.11721213612752, 33.07753597110169]}}, {"type": "Feature", "properties": {"norad_id": 34046, "name": "COSMOS 2251 DEB", "group": "cosmos-2251-debris", "lat": 44.235759742626584, "lon": 10.640861660542756, "alt_km": 686.3655615894131, "timestamp": "2025-12-21T07:34:34.908257+00:00", "meta": {"OBJECT_NAME": "COSMOS 2251 DEB", "OBJECT_ID": "1993-036JH", "EPOCH": "2025-12-20T01:44:37.329792", "MEAN_MOTION": 14.46526924, "ECCENTRICITY": 0.00744564, "INCLINATION": 74.0389, "RA_OF_ASC_NODE": 356.7805, "ARG_OF_PERICENTER": 78.006, "MEAN_ANOMALY": 338.5486, "EPHEMERIS_TYPE": 0, "CLASSIFICATION_TYPE": "U", "NORAD_CAT_ID": 34046, "ELEMENT_SET_NO": 999, "REV_AT_EPOCH": 87932, "BSTAR": 0.00078666467, "MEAN_MOTION_DOT": 2.906e-05, "MEAN_MOTION_DDOT": 0}, "tle": {"line1": "1 34046U 93036JH  25354.07265428  .00002906  00000+0  78666-3 0  9993", "line2": "2 34046  74.0389 356.7805 0074456  78.0060 338.5486 14.46526924879320"}}, "geometry": {"type": "Point", "coordinates": [10.640861660542756, 44.235759742626584]}}, {"type": "Feature", "properties": {"norad_id": 34050, "name": "COSMOS 2251 DEB", "group": "cosmos-2251-debris", "lat": 6.4029297910795755, "lon": 173.50700758726828, "alt_km": 973.9380107720426, "timestamp": "2025-12-21T07:34:34.908266+00:00", "meta": {"OBJECT_NAME": "COSMOS 2251 DEB", "OBJECT_ID": "1993-036JM", "EPOCH": "2025-12-20T17:32:29.256288", "MEAN_MOTION": 13.96197358, "ECCENTRICITY": 0.02146949, "INCLINATION": 74.0882, "RA_OF_ASC_NODE": 356.3442, "ARG_OF_PERICENTER": 58.6067, "MEAN_ANOMALY": 54.2106, "EPHEMERIS_TYPE": 0, "CLASSIFICATION_TYPE": "U", "NORAD_CAT_ID": 34050, "ELEMENT_SET_NO": 999, "REV_AT_EPOCH": 85543, "BSTAR": 0.0005258601, "MEAN_MOTION_DOT": 8.56e-06, "MEAN_MOTION_DDOT": 0}, "tle": {"line1": "1 34050U 93036JM  25354.73089417  .00000856  00000+0  52586-3 0  9998", "line2": "2 34050  74.0882 356.3442 0214694  58.6067  54.2106 13.96197358855433"}}, "geometry": {"type": "Point", "coordinates": [173.50700758726828, 6.4029297910795755]}}, {"type": "Feature", "properties": {"norad_id": 34053, "name": "COSMOS 2251 DEB", "group": "cosmos-2251-debris", "lat": 40.204329820778156, "lon": 34.17006504485235, "alt_km": 1229.898632647727, "timestamp": "2025-12-21T07:34:34.908275+00:00", "meta": {"OBJECT_NAME": "COSMOS 2251 DEB", "OBJECT_ID": "1993-036JQ", "EPOCH": "2025-12-20T16:41:14.361504", "MEAN_MOTION": 13.49172922, "ECCENTRICITY": 0.04226751, "INCLINATION": 73.8433, "RA_OF_ASC_NODE": 229.3517, "ARG_OF_PERICENTER": 16.5958, "MEAN_ANOMALY": 344.8501, "EPHEMERIS_TYPE": 0, "CLASSIFICATION_TYPE": "U", "NORAD_CAT_ID": 34053, "ELEMENT_SET_NO": 999, "REV_AT_EPOCH": 82791, "BSTAR": 0.00050236834, "MEAN_MOTION_DOT": 5.27e-06, "MEAN_MOTION_DDOT": 0}, "tle": {"line1": "1 34053U 93036JQ  25354.69530511  .00000527  00000+0  50237-3 0  9998", "line2": "2 34053  73.8433 229.3517 0422675  16.5958 344.8501 13.49172922827916"}}, "geometry": {"type": "Point", "coordinates": [34.17006504485235, 40.204329820778156]}}, {"type": "Feature", "properties": {"norad_id": 34056, "name": "COSMOS 2251 DEB", "group": "cosmos-2251-debris", "lat": -12.094167608744854, "lon": 57.53185319593303, "alt_km": 869.9370284929873, "timestamp": "2025-12-21T07:34:34.908284+00:00", "meta": {"OBJECT_NAME": "COSMOS 2251 DEB", "OBJECT_ID": "1993-036JT", "EPOCH": "2025-12-20T06:34:57.855072", "MEAN_MOTION": 14.20580968, "ECCENTRICITY": 0.01237601, "INCLINATION": 74.0586, "RA_OF_ASC_NODE": 62.9046, "ARG_OF_PERICENTER": 108.7592, "MEAN_ANOMALY": 316.3034, "EPHEMERIS_TYPE": 0, "CLASSIFICATION_TYPE": "U", "NORAD_CAT_ID": 34056, "ELEMENT_SET_NO": 999, "REV_AT_EPOCH": 86518, "BSTAR": 0.0004934221, "MEAN_MOTION_DOT": 1.122e-05, "MEAN_MOTION_DDOT": 0}, "tle": {"line1": "1 34056U 93036JT  25354.27428073  .00001122  00000+0  49342-3 0  9991", "line2": "2 34056  74.0586  62.9046 0123760 108.7592 316.3034 14.20580968865189"}}, "geometry": {"type": "Point", "coordinates": [57.53185319593303, -12.094167608744854]}}]}